OBJECT_NAME,OBJECT_ID,EPOCH,MEAN_MOTION,ECCENTRICITY,INCLINATION,RA_OF_ASC_NODE,ARG_OF_PERICENTER,MEAN_ANOMALY,EPHEMERIS_TYPE,CLASSIFICATION_TYPE,NORAD_CAT_ID,ELEMENT_SET_NO,REV_AT_EPOCH,BSTAR,MEAN_MOTION_DOT,MEAN_MOTION_DDOT
TANSAT,2016-081A,2026-05-14T22:33:23.280192,14.59920587,.00216986,98.5367,134.2160,53.9944,306.3262,0,U,41898,999,49977,.34307913E-4,.114E-5,0
JILIN-1 03,2017-002B,2026-05-14T23:26:29.071968,15.40740658,.00037245,97.1953,142.5503,302.4205,57.6681,0,U,41914,999,51674,.21207471E-3,.8589E-4,0
CARTOSAT-2D,2017-008A,2026-05-14T23:07:34.618368,15.19227771,.00046242,97.4137,194.8841,12.4559,347.6789,0,U,41948,999,51253,.10453043E-3,.2134E-4,0
CARTOSAT-2E,2017-036C,2026-05-14T09:19:00.599232,15.19198867,.00044377,97.4302,194.7423,70.2884,289.8829,0,U,42767,999,49301,.41279949E-4,.801E-5,0
IRIDIUM 113,2017-039A,2026-05-14T01:17:27.220992,14.34217632,.00022432,86.3970,336.4532,92.6980,267.4473,0,U,42803,999,46629,.13941625E-4,.59E-6,0
NORSAT 2,2017-042D,2026-05-14T10:07:50.941632,15.21218268,.00102821,97.4019,308.4214,163.2110,196.9468,0,U,42828,999,48260,.35891423E-3,.7954E-4,0
TECHNOSAT,2017-042E,2026-05-14T20:51:46.296576,15.04737710,.00171922,97.4241,293.8080,203.9327,156.1103,0,U,42829,999,48169,.14045921E-3,.1926E-4,0
FLYING LAPTOP,2017-042G,2026-05-14T22:05:46.756320,15.00917188,.00177116,97.4533,291.7693,235.4258,124.5296,0,U,42831,999,48146,.17977422E-3,.2239E-4,0
WNISAT 1R,2017-042L,2026-05-14T16:59:56.161824,15.01600984,.00101545,97.4795,292.0369,278.7035,81.3039,0,U,42835,999,48148,.1346872E-3,.169E-4,0
LEMUR-2-GREENBERG,2017-042N,2026-05-14T11:41:33.437184,15.30237557,.00103474,97.3806,315.2998,122.2982,237.9262,0,U,42837,999,48323,.39432728E-3,.11483E-3,0
LEMUR-2-FURIAUS,2017-042R,2026-05-14T21:56:48.511968,15.29098825,.00079241,97.3757,313.7566,172.7817,187.3539,0,U,42840,999,48312,.40370674E-3,.11344E-3,0
CORVUS BC2,2017-042X,2026-05-14T17:04:32.283264,15.06073140,.00120659,97.4039,297.3753,221.1701,138.8617,0,U,42846,999,48202,.1450606E-3,.2062E-4,0
CORVUS BC1,2017-042Y,2026-05-14T17:02:15.160416,15.06244587,.00114662,97.4069,298.1661,194.7341,165.3554,0,U,42847,999,48205,.13899E-3,.1982E-4,0
VRSS-2,2017-060A,2026-05-14T22:47:21.213312,14.81137858,.0016294,97.6545,174.1702,203.6849,156.3616,0,U,42954,999,46353,.97546451E-4,.71E-5,0
MOHAMMED VI-A,2017-070A,2026-05-14T22:47:30.241248,14.77090645,.00014711,97.9569,207.7357,105.6515,254.4858,0,U,43005,999,45907,.698766E-6,-.46E-6,0
FENGYUN 3D,2017-072A,2026-05-14T22:53:14.757792,14.19731856,.00022385,99.0106,108.7791,117.8765,242.2637,0,U,43010,999,44027,-.60198404E-4,-.174E-5,0
NOAA 20 (JPSS-1),2017-073A,2026-05-14T20:56:37.816224,14.19505123,.00014562,98.7762,74.6340,48.6041,311.5260,0,U,43013,999,43974,.343348E-4,.28E-6,0
MAKERSAT 0,2017-073D,2026-05-14T09:32:58.941024,15.30619591,.01114445,97.4682,16.6839,34.1652,326.6695,0,U,43016,999,46129,.50690833E-3,.1813E-3,0
RADFXSAT (FOX-1B),2017-073E,2026-05-14T14:21:06.796512,15.12072854,.01539783,97.4754,2.5115,84.6855,277.1923,0,U,43017,999,46031,.27356502E-3,.6215E-4,0
JILIN-1 04,2017-074A,2026-05-14T22:12:49.837248,15.41564005,.00028536,97.4827,243.6815,330.3397,29.7687,0,U,43022,999,46914,.20037676E-3,.833E-4,0
JILIN-1 05,2017-074B,2026-05-14T21:50:03.954336,15.33338193,.00049026,97.4835,240.6344,2.8498,357.2771,0,U,43023,999,46890,.16868868E-3,.5354E-4,0
JILIN-1 06,2017-074C,2026-05-14T22:39:57.966624,15.33304568,.0006897,97.4763,237.7164,10.6637,349.4750,0,U,43024,999,46874,.1207908E-3,.3808E-4,0
IRIDIUM 116,2017-083C,2026-05-14T20:46:31.573344,14.34219208,.00020872,86.3962,335.9389,79.5946,280.5485,0,U,43072,999,43939,.61192469E-4,.191E-5,0
IRIDIUM 130,2017-083D,2026-05-14T01:35:43.230048,14.34217683,.00022643,86.3970,336.5451,81.9949,278.1504,0,U,43073,999,43922,.8051111E-5,.42E-6,0
LKW-2,2017-084A,2026-05-14T23:33:45.493920,15.25876392,.00025942,97.1225,176.3366,46.8787,313.2669,0,U,43080,999,46662,.13744915E-3,.3453E-4,0
SUPERVIEW-1 03,2018-002A,2026-05-14T22:24:47.255328,15.38189701,.00463669,97.3136,219.8514,301.3158,58.3552,0,U,43099,999,46325,.24369874E-3,.9422E-4,0
CARTOSAT-2F,2018-004A,2026-05-13T15:06:14.306400,15.19200869,.00017749,97.4581,193.5962,57.0492,303.0913,0,U,43111,999,46208,.14487477E-3,.2981E-4,0
LKW-3,2018-006A,2026-05-14T22:27:29.999232,15.34572100,.00041434,97.6571,294.2367,73.3611,286.8086,0,U,43146,999,46361,.22786228E-3,.7549E-4,0
