TANSAT                  
1 41898U 16081A   26134.93985278  .00000114  00000+0  34308-4 0  9990
2 41898  98.5367 134.2160 0021698  53.9944 306.3262 14.59920587499775
JILIN-1 03              
1 41914U 17002B   26134.97672537  .00008589  00000+0  21207-3 0  9995
2 41914  97.1953 142.5503 0003724 302.4205  57.6681 15.40740658516743
CARTOSAT-2D             
1 41948U 17008A   26134.96359512  .00002134  00000+0  10453-3 0  9993
2 41948  97.4137 194.8841 0004624  12.4559 347.6789 15.19227771512538
CARTOSAT-2E             
1 42767U 17036C   26134.38820138  .00000801  00000+0  41280-4 0  9999
2 42767  97.4302 194.7423 0004437  70.2884 289.8829 15.19198867493018
IRIDIUM 113             
1 42803U 17039A   26134.05378728  .00000059  00000+0  13942-4 0  9999
2 42803  86.3970 336.4532 0002243  92.6980 267.4473 14.34217632466296
NORSAT 2                
1 42828U 17042D   26134.42211738  .00007954  00000+0  35891-3 0  9995
2 42828  97.4019 308.4214 0010282 163.2110 196.9468 15.21218268482604
TECHNOSAT               
1 42829U 17042E   26134.86928584  .00001926  00000+0  14046-3 0  9990
2 42829  97.4241 293.8080 0017192 203.9327 156.1103 15.04737710481690
FLYING LAPTOP           
1 42831U 17042G   26134.92068005  .00002239  00000+0  17977-3 0  9997
2 42831  97.4533 291.7693 0017711 235.4258 124.5296 15.00917188481466
WNISAT 1R               
1 42835U 17042L   26134.70828891  .00001690  00000+0  13469-3 0  9996
2 42835  97.4795 292.0369 0010154 278.7035  81.3039 15.01600984481482
LEMUR-2-GREENBERG       
1 42837U 17042N   26134.48719256  .00011483  00000+0  39433-3 0  9997
2 42837  97.3806 315.2998 0010347 122.2982 237.9262 15.30237557483236
LEMUR-2-FURIAUS         
1 42840U 17042R   26134.91445037  .00011344  00000+0  40371-3 0  9991
2 42840  97.3757 313.7566 0007924 172.7817 187.3539 15.29098825483127
CORVUS BC2              
1 42846U 17042X   26134.71148476  .00002062  00000+0  14506-3 0  9990
2 42846  97.4039 297.3753 0012065 221.1701 138.8617 15.06073140482029
CORVUS BC1              
1 42847U 17042Y   26134.70989769  .00001982  00000+0  13899-3 0  9992
2 42847  97.4069 298.1661 0011466 194.7341 165.3554 15.06244587482052
VRSS-2                  
1 42954U 17060A   26134.94955108  .00000710  00000+0  97546-4 0  9997
2 42954  97.6545 174.1702 0016294 203.6849 156.3616 14.81137858463533
MOHAMMED VI-A           
1 43005U 17070A   26134.94965557 -.00000046  00000+0  69877-6 0  9996
2 43005  97.9569 207.7357 0001471 105.6515 254.4858 14.77090645459070
FENGYUN 3D              
1 43010U 17072A   26134.95364303 -.00000174  00000+0 -60198-4 0  9995
2 43010  99.0106 108.7791 0002238 117.8765 242.2637 14.19731856440276
NOAA 20 (JPSS-1)        
1 43013U 17073A   26134.87265991  .00000028  00000+0  34335-4 0  9993
2 43013  98.7762  74.6340 0001456  48.6041 311.5260 14.19505123439741
MAKERSAT 0              
1 43016U 17073D   26134.39790441  .00018130  00000+0  50691-3 0  9991
2 43016  97.4682  16.6839 0111444  34.1652 326.6695 15.30619591461290
RADFXSAT (FOX-1B)       
1 43017U 17073E   26134.59799533  .00006215  00000+0  27357-3 0  9999
2 43017  97.4754   2.5115 0153978  84.6855 277.1923 15.12072854460316
JILIN-1 04              
1 43022U 17074A   26134.92557682  .00008330  00000+0  20038-3 0  9999
2 43022  97.4827 243.6815 0002853 330.3397  29.7687 15.41564005469149
JILIN-1 05              
1 43023U 17074B   26134.90976799  .00005354  00000+0  16869-3 0  9992
2 43023  97.4835 240.6344 0004902   2.8498 357.2771 15.33338193468907
JILIN-1 06              
1 43024U 17074C   26134.94442091  .00003808  00000+0  12079-3 0  9991
2 43024  97.4763 237.7164 0006897  10.6637 349.4750 15.33304568468743
IRIDIUM 116             
1 43072U 17083C   26134.86564321  .00000191  00000+0  61192-4 0  9999
2 43072  86.3962 335.9389 0002087  79.5946 280.5485 14.34219208439393
IRIDIUM 130             
1 43073U 17083D   26134.06647257  .00000042  00000+0  80511-5 0  9994
2 43073  86.3970 336.5451 0002264  81.9949 278.1504 14.34217683439229
LKW-2                   
1 43080U 17084A   26134.98177655  .00003453  00000+0  13745-3 0  9996
2 43080  97.1225 176.3366 0002594  46.8787 313.2669 15.25876392466627
SUPERVIEW-1 03          
1 43099U 18002A   26134.93388027  .00009422  00000+0  24370-3 0  9997
2 43099  97.3136 219.8514 0046366 301.3158  58.3552 15.38189701463253
CARTOSAT-2F             
1 43111U 18004A   26133.62933225  .00002981  00000+0  14487-3 0  9996
2 43111  97.4581 193.5962 0001774  57.0492 303.0913 15.19200869462087
LKW-3                   
1 43146U 18006A   26134.93576388  .00007549  00000+0  22786-3 0  9990
2 43146  97.6571 294.2367 0004143  73.3611 286.8086 15.34572100463617
